[{"OBJECT_NAME":"STARLINK-6350","OBJECT_ID":"2023-094J","EPOCH":"2026-03-09T22:00:01.999584","MEAN_MOTION":15.13342785,"ECCENTRICITY":5.601e-5,"INCLINATION":43.0016,"RA_OF_ASC_NODE":28.7492,"ARG_OF_PERICENTER":301.6337,"MEAN_ANOMALY":222.0349,"EPHEMERIS_TYPE":0,"CLASSIFICATION_TYPE":"U","NORAD_CAT_ID":57226,"ELEMENT_SET_NO":999,"REV_AT_EPOCH":577,"BSTAR":0.004124811,"MEAN_MOTION_DOT":0.00075399,"MEAN_MOTION_DDOT":0},{"OBJECT_NAME":"LEGION 2","OBJECT_ID":"2024-081B","EPOCH":"2026-03-09T21:44:46.632192","MEAN_MOTION":15.16566591,"ECCENTRICITY":0.00102207,"INCLINATION":97.5068,"RA_OF_ASC_NODE":147.8786,"ARG_OF_PERICENTER":344.1701,"MEAN_ANOMALY":15.9211,"EPHEMERIS_TYPE":0,"CLASSIFICATION_TYPE":"U","NORAD_CAT_ID":59626,"ELEMENT_SET_NO":999,"REV_AT_EPOCH":10249,"BSTAR":0.00029733867,"MEAN_MOTION_DOT":5.743e-5,"MEAN_MOTION_DDOT":0}]
